{"type":"FeatureCollection","features":[{"id":"0","type":"Feature","properties":{"origin_node":"node_465373.90_394232.40","destination_node":"node_465432.95_388497.42","objective":"FLOOD_AWARE","reachable":true,"total_distance_m":7630.4672154019945,"total_distance_km":7.630467215401994,"estimated_travel_time_s":655.9017795899412,"estimated_travel_time_min":10.931696326499019,"flood_exposed_length_m":0.0,"flood_exposed_ratio":0.0,"max_flood_depth_m":0.0,"max_slope_percent":65.16952954906594,"traversed_edge_count":202},"geometry":{"type":"LineString","coordinates":[[98.6882257,3.5666448999999996],[98.6883631,3.5664636],[98.6885936,3.5661844],[98.6887353,3.5659873],[98.6889944,3.5656079000000003],[98.6893588,3.5651485],[98.6895378,3.564933700000001],[98.6896048,3.5648360000000006],[98.6896726,3.564713499999999],[98.6897188,3.5646044],[98.68976570000001,3.5644713],[98.6898423,3.5640689999999995],[98.6898811,3.5637798999999997],[98.6898918,3.5635557],[98.6898905,3.5634479],[98.6898777,3.5633274999999998],[98.6897753,3.5628446999999994],[98.6897586,3.5627908],[98.6897495,3.5627612999999996],[98.6897068,3.562623499999999],[98.6896962,3.5625816],[98.6896684,3.5624928],[98.689632,3.5623792999999995],[98.68950810000001,3.5619800000000006],[98.689285,3.5612672],[98.6890972,3.5606805999999995],[98.68896720000001,3.5601692],[98.6888706,3.5597322000000005],[98.6888438,3.5596318],[98.6888116,3.5594500999999994],[98.6887891,3.559292500000001],[98.68877030000002,3.5591107999999996],[98.6887536,3.5588845999999994],[98.6887294,3.5585605],[98.6887018,3.5582083],[98.6886724,3.5578602999999998],[98.6886624,3.5577551],[98.6886438,3.5574881],[98.6886221,3.5571609999999994],[98.68860070000001,3.5568386999999997],[98.688599,3.5567078000000003],[98.6885756,3.556177800000001],[98.68857020000002,3.555986399999999],[98.6885403,3.5554750999999993],[98.68853000000001,3.5552320999999996],[98.6885293,3.5551236999999998],[98.68853080000001,3.5548419],[98.6885313,3.554752300000001],[98.6885357,3.5543723999999997],[98.6885346,3.5540094],[98.6885442,3.5537772999999997],[98.68855450000001,3.5531797999999997],[98.6885498,3.5527063],[98.68854570000002,3.5523468],[98.6885351,3.5520056],[98.6885138,3.5516950999999994],[98.68848820000001,3.5513228999999997],[98.68844,3.5508113999999993],[98.6884287,3.5506673],[98.68840460000001,3.5502447999999998],[98.6883925,3.5500828000000006],[98.6883685,3.5499293],[98.6883353,3.5497172],[98.6882655,3.5493706999999994],[98.6881602,3.5490249000000005],[98.6881513,3.548998399999999],[98.6881179,3.5488984999999995],[98.6880934,3.5488293],[98.6879637,3.5484657000000004],[98.6879114,3.5483175],[98.6878976,3.5482785],[98.68768850000001,3.5476577999999996],[98.68753420000002,3.5471875999999996],[98.6874437,3.5469348],[98.6873525,3.5466633999999995],[98.6872441,3.5463369],[98.6871882,3.5461488999999995],[98.6870675,3.545758],[98.6868992,3.5452330000000005],[98.686862,3.5450962],[98.6868251,3.5449943000000004],[98.68671400000001,3.5446071000000003],[98.6866705,3.5444281999999996],[98.6866657,3.5444013000000005],[98.6866162,3.544143],[98.6865532,3.543819099999999],[98.6865284,3.5436684999999994],[98.6864526,3.5432911],[98.6864378,3.5432168],[98.6864226,3.543157],[98.6863956,3.5430829],[98.6863393,3.5429581],[98.686236,3.5427771000000003],[98.6861947,3.542724099999999],[98.6861359,3.5426511999999994],[98.6860378,3.5425445999999994],[98.6859512,3.5424077],[98.68582710000001,3.5420750999999995],[98.6857814,3.5419484999999997],[98.68571300000002,3.5417670999999995],[98.6856339,3.5415433999999997],[98.6855661,3.5413788],[98.6855261,3.5412817],[98.6854793,3.5411531999999997],[98.6854532,3.5410725999999997],[98.68532000000002,3.5407064],[98.6852519,3.540512099999999],[98.6851302,3.5401488],[98.6850183,3.5398163999999994],[98.6849995,3.5397345999999996],[98.6849941,3.5396342000000005],[98.6849995,3.5394213],[98.68499610000002,3.5391054],[98.6849807,3.5388189999999993],[98.684972,3.5387346999999996],[98.6849278,3.5385687],[98.6848918,3.538435199999999],[98.68482,3.5382075999999993],[98.6847948,3.5381368999999996],[98.68477950000002,3.5380934999999987],[98.68472320000001,3.5379757000000005],[98.68467,3.5378531999999994],[98.684593,3.5377051],[98.6845032,3.537566699999999],[98.6844453,3.5374453],[98.6842062,3.5371009999999994],[98.684131,3.5369993],[98.68408950000001,3.5369076],[98.6840533,3.5367987999999997],[98.6840285,3.5367399],[98.683995,3.5364710999999995],[98.6839772,3.5363316999999994],[98.6839708,3.5361450999999993],[98.6839621,3.5358948999999997],[98.6839695,3.5355854999999994],[98.6839673,3.5354087999999995],[98.6839819,3.5352095000000006],[98.6839909,3.5350387999999997],[98.6839985,3.534728799999999],[98.6839795,3.5344027],[98.68398060000001,3.5342688000000004],[98.6839864,3.5341673999999994],[98.6840069,3.5340896],[98.6840454,3.5340153],[98.6841084,3.5339464999999994],[98.6841814,3.5338784000000003],[98.6842274,3.5338475],[98.6845408,3.5336052999999996],[98.6848085,3.5333954999999997],[98.6849582,3.5332922],[98.6851498,3.5331469],[98.6853446,3.5329892],[98.6855415,3.5328361999999998],[98.685837,3.5325758999999994],[98.68597540000002,3.5324604000000006],[98.68603,3.532420899999999],[98.686082,3.5323555999999994],[98.6861118,3.5323181],[98.6861376,3.5322877999999998],[98.6862234,3.5321922999999997],[98.6862339,3.5321806000000002],[98.6865269,3.5318269999999994],[98.6866322,3.5317437000000003],[98.6867464,3.5316891999999993],[98.6867667,3.531647399999999],[98.6867965,3.5315734],[98.6868155,3.5315019999999997],[98.6868429,3.5313658999999995],[98.68684780000001,3.5313088999999995],[98.6868596,3.5312298],[98.6868626,3.5312099],[98.6868517,3.5310445999999995],[98.6868483,3.5308978],[98.6868232,3.5308414],[98.68680160000001,3.5307952],[98.6867797,3.5307502999999993],[98.686547,3.5303333999999995],[98.6863256,3.529893],[98.68615340000001,3.529533],[98.6860734,3.5293913],[98.6859769,3.52919],[98.6859037,3.5290326999999997],[98.6857147,3.5286858999999997],[98.685648,3.5285554999999995],[98.6855239,3.5283238],[98.6853576,3.5279784999999992],[98.6852089,3.5277093],[98.6851343,3.5275652],[98.6850197,3.527359],[98.684948,3.527176],[98.6847607,3.5268014],[98.6846981,3.5266921000000004],[98.6845799,3.5264295999999993],[98.6845175,3.5262952999999997],[98.6843888,3.5260565],[98.6842119,3.5256951999999995],[98.6840904,3.5255020000000004],[98.6840536,3.5254443],[98.6838646,3.5250413999999997],[98.6837368,3.5248034999999995],[98.6836232,3.5245900999999997],[98.683602,3.5245503999999994],[98.6833785,3.5241374999999997],[98.6832116,3.5237995999999994],[98.6830255,3.5234229],[98.6826704,3.5227651999999994],[98.6824746,3.5224091],[98.682445,3.5223451999999993],[98.68241980000002,3.5222908],[98.6823159,3.522111],[98.682248,3.5219597],[98.68223330000001,3.5219313],[98.6821949,3.5218535],[98.6820863,3.5216722000000003],[98.6820265,3.5215441],[98.6819571,3.5214417999999994],[98.6818163,3.5212238],[98.6817161,3.5210163999999997],[98.6816293,3.5208703999999993],[98.6814642,3.5206009],[98.681438,3.5205491999999996],[98.6812911,3.5202679000000003],[98.6811504,3.5199862000000004],[98.6809298,3.5195927000000005],[98.6808623,3.5194811],[98.6807544,3.5192980000000005],[98.6806233,3.5190080000000004],[98.680521,3.518793100000001],[98.6804612,3.5186265],[98.6816819,3.5185844999999993],[98.6817852,3.5185788999999996],[98.681906,3.5185727],[98.6825291,3.5185596],[98.6828718,3.5185591999999994],[98.6831078,3.5185600999999997],[98.6832322,3.518562699999999],[98.683649,3.5185669999999996],[98.6841339,3.5185644999999997],[98.6849509,3.5185451000000008],[98.6851779,3.5185364999999993],[98.6857109,3.518524099999999],[98.6860666,3.5185129999999996],[98.6860178,3.5173853],[98.6860022,3.5171778],[98.6859902,3.5169577999999997],[98.6859772,3.5167795],[98.6859787,3.5167452],[98.6859744,3.5163474000000003],[98.6859628,3.5158784000000005],[98.6859638,3.5155834999999995],[98.6859891,3.515419000000001],[98.6868039,3.5154196000000004],[98.6867872,3.5151882999999997],[98.6867436,3.5149966000000004],[98.6867027,3.5147951],[98.6866424,3.514576899999999],[98.6866068,3.5143701999999997],[98.6864891,3.513666000000001],[98.6864452,3.5134545000000004],[98.6863802,3.5131673000000005],[98.6864292,3.5131631999999997],[98.6864104,3.5129418999999986],[98.6863831,3.5127433],[98.6864304,3.5127409999999997],[98.6870279,3.5127173999999997],[98.6870279,3.512881999999999],[98.6870299,3.5128918999999996],[98.6870326,3.512897],[98.6870364,3.5129009000000004],[98.6870417,3.5129033],[98.68743090000001,3.5129297999999998],[98.6874463,3.5129405],[98.6874577,3.5129505],[98.6874678,3.5129658999999998],[98.6874758,3.5129873],[98.6874819,3.5130180999999996],[98.6875617,3.5134873],[98.687569,3.5135026999999996],[98.6875811,3.513511999999999],[98.6878695,3.513518699999999],[98.6879834,3.5135208999999996],[98.6883201,3.5135085000000004],[98.6884201,3.5135001999999997],[98.6887516,3.5135049999999994],[98.6887224,3.5138347],[98.6887331,3.5141077],[98.68877470000001,3.5147616999999998]]}}]}