{"type":"FeatureCollection","features":[{"id":"0","type":"Feature","properties":{"origin_node":"node_465373.90_394232.40","destination_node":"node_465432.95_388497.42","objective":"FLOOD_AWARE","reachable":true,"total_distance_m":7636.602388105553,"total_distance_km":7.636602388105553,"estimated_travel_time_s":705.8990646296094,"estimated_travel_time_min":11.76498441049349,"flood_exposed_length_m":0.0,"flood_exposed_ratio":0.0,"max_flood_depth_m":0.0,"max_slope_percent":11.792494977318153,"traversed_edge_count":149},"geometry":{"type":"LineString","coordinates":[[98.6882257,3.5666448999999996],[98.6883631,3.5664636],[98.6885936,3.5661844],[98.6887353,3.5659873],[98.6889944,3.5656079000000003],[98.6893588,3.5651485],[98.6895378,3.564933700000001],[98.6896048,3.5648360000000006],[98.6896726,3.564713499999999],[98.6897188,3.5646044],[98.68976570000001,3.5644713],[98.6898423,3.5640689999999995],[98.6898811,3.5637798999999997],[98.6898918,3.5635557],[98.6898905,3.5634479],[98.6898777,3.5633274999999998],[98.6897753,3.5628446999999994],[98.6898584,3.5628392999999994],[98.689946,3.5628375999999995],[98.6902855,3.5628309],[98.6903343,3.56283],[98.6903867,3.5628294999999994],[98.6904779,3.5628284999999997],[98.6906657,3.5628282],[98.6913279,3.5628240999999994],[98.6918493,3.5628132],[98.6925756,3.5627955],[98.6929152,3.5628018],[98.6929307,3.562736599999999],[98.6930144,3.5623882],[98.6930961,3.562124799999999],[98.6932034,3.5617411000000003],[98.693352,3.561280599999999],[98.6934398,3.5609853999999994],[98.69360420000001,3.5605002000000003],[98.6937682,3.5599686999999998],[98.6939143,3.5594850999999994],[98.6939795,3.5592456],[98.6940669,3.5589913999999996],[98.6943251,3.5581754999999995],[98.6944693,3.5577071999999994],[98.6945463,3.5574487],[98.69457470000002,3.557316199999999],[98.6945923,3.5572828],[98.6946952,3.5569235999999997],[98.6947433,3.5567607999999997],[98.6949928,3.5559988000000002],[98.69539850000001,3.5546645999999997],[98.695588,3.5541463999999996],[98.695718,3.5538933999999998],[98.6958481,3.5536431],[98.69600210000002,3.5533836],[98.696093,3.5532399999999997],[98.6962336,3.5531018],[98.69642400000001,3.5528854999999995],[98.6966498,3.5526623999999996],[98.6968346,3.5524720999999997],[98.697036,3.5522605],[98.6972355,3.5520526],[98.6974466,3.5518058],[98.6975951,3.5516073000000006],[98.6977675,3.5513618999999994],[98.6979183,3.5511309],[98.6980579,3.5508921],[98.6982215,3.5505913999999996],[98.6983135,3.5503996],[98.6983633,3.550308399999999],[98.6983846,3.5502504],[98.6984481,3.5500332999999995],[98.69854,3.549736],[98.6985657,3.5496128000000007],[98.6986025,3.549471],[98.6986396,3.5492618999999994],[98.6986566,3.5489811],[98.69867160000001,3.5486622999999997],[98.6986622,3.5481796],[98.6986345,3.5477088],[98.6986283,3.5472366],[98.698602,3.54645],[98.6986025,3.5462879999999997],[98.6985959,3.5460425],[98.698581,3.5457693999999997],[98.6985769,3.5455524],[98.6985586,3.5450645999999995],[98.6985592,3.5449857000000002],[98.6985535,3.5443298999999997],[98.6985408,3.5439703],[98.6985401,3.5436200999999996],[98.6985446,3.5430822999999996],[98.698554,3.5428507],[98.6985688,3.5426945],[98.6986056,3.5424897999999994],[98.6986328,3.5423709],[98.6986538,3.5422524],[98.6985996,3.5421881000000006],[98.6985835,3.5421078000000006],[98.6985768,3.542027500000001],[98.698554,3.5417745],[98.6985312,3.5414304999999997],[98.6984907,3.5411107],[98.6984935,3.5408888],[98.69849200000002,3.5407382],[98.6984846,3.5403599],[98.6984206,3.5395725999999996],[98.69837100000001,3.5391215],[98.6983476,3.5389080999999996],[98.6983065,3.538604999999999],[98.6982907,3.538522900000001],[98.6982835,3.5384561999999997],[98.6982596,3.5380302],[98.69825410000001,3.537864499999999],[98.6982232,3.5375045],[98.6981799,3.5370678999999994],[98.6981523,3.5367404999999996],[98.6981578,3.5365976000000003],[98.69816810000002,3.5364134],[98.6982269,3.5361605],[98.6982288,3.5361125],[98.6982942,3.5357598],[98.6983301,3.535573],[98.6984017,3.5352457],[98.6984079,3.535129899999999],[98.6984173,3.534965299999999],[98.6984108,3.5345303000000006],[98.6984101,3.5343213999999996],[98.6984094,3.533859899999999],[98.6984185,3.5335616],[98.6984114,3.5334459],[98.69838910000001,3.5323336999999997],[98.6983889,3.5322995000000006],[98.6983652,3.5318358],[98.69835860000002,3.5313564999999993],[98.6983581,3.5313203000000004],[98.69834410000001,3.5308492000000005],[98.6983445,3.53083],[98.6983605,3.5303494999999994],[98.698359,3.5300664999999993],[98.6983358,3.5293191000000004],[98.6983193,3.5290230999999994],[98.6983186,3.5288542999999994],[98.6983247,3.5286231],[98.6983202,3.5285396],[98.6983285,3.5282483],[98.6983269,3.5280519000000004],[98.6983051,3.5271037999999995],[98.6983082,3.5268053],[98.698308,3.5265038],[98.6983223,3.5260835],[98.698318,3.5258278],[98.6983185,3.5256977],[98.6983254,3.5252177000000002],[98.6983107,3.5242347],[98.6983117,3.5237054000000003],[98.6982951,3.522992399999999],[98.6982917,3.5224914999999997],[98.6982965,3.5222415999999996],[98.698296,3.5218037],[98.6982954,3.5213557],[98.6982777,3.5205307999999995],[98.6982683,3.5200344000000006],[98.6982636,3.5198238],[98.6982612,3.5194342999999995],[98.6982608,3.5194064],[98.6982616,3.5192826999999993],[98.6982648,3.5188234999999994],[98.69825890000001,3.5186080999999994],[98.6982511,3.5183218],[98.6976914,3.518340699999999],[98.6975445,3.5183412],[98.6972713,3.5183485000000005],[98.6968382,3.5183528],[98.6966554,3.5183500000000003],[98.69617930000001,3.5183536999999996],[98.6959099,3.5183694999999995],[98.6955001,3.518389499999999],[98.6953304,3.5183867999999996],[98.6948815,3.5183848999999996],[98.6945602,3.5183886],[98.6942128,3.5183885],[98.693673,3.5183994999999992],[98.6933238,3.518411299999999],[98.6928987,3.5184229999999994],[98.692376,3.5184254999999998],[98.6923527,3.5181300999999996],[98.6923278,3.5174274],[98.6923501,3.5168773],[98.6923534,3.5161959],[98.6923554,3.5161249],[98.6923513,3.5160037000000006],[98.6923514,3.5158706000000004],[98.6923488,3.5157982999999997],[98.6923488,3.5157206999999997],[98.6923067,3.5150012999999998],[98.6923076,3.5148456999999995],[98.6923037,3.5147461],[98.6922936,3.5146835],[98.6922835,3.5146504],[98.6922702,3.5146262999999998],[98.6922786,3.5144936],[98.692274,3.5144528000000004],[98.6922627,3.5144113999999997],[98.6922469,3.5143598999999996],[98.6922438,3.5143322999999995],[98.6922507,3.5142692999999996],[98.6922498,3.5141656],[98.6922508,3.514043399999999],[98.69223470000001,3.5139657999999994],[98.6922294,3.5138573],[98.692244,3.5136928000000003],[98.6923003,3.5135427999999997],[98.691701,3.5135487999999997],[98.6915937,3.513546900000001],[98.69134,3.5135265999999996],[98.6911605,3.5134879999999993],[98.6909661,3.513469199999999],[98.6906143,3.5134732],[98.6902381,3.5134722999999997],[98.6900099,3.5134933],[98.6898056,3.5134843000000004],[98.6890845,3.513477300000001],[98.6888941,3.513484],[98.6887516,3.5135049999999994],[98.6887224,3.5138347],[98.6887331,3.5141077],[98.68877470000001,3.5147616999999998]]}}]}